GPS BIIR-2  (PRN 13)    
1 24876U 97035A   16201.01432390  .00000071  00000-0  00000+0 0  9990
2 24876  55.6439 240.2366 0039414 115.8256 244.6711  2.00562596139141
GPS BIIR-3  (PRN 11)    
1 25933U 99055A   16201.55307102 -.00000030  00000-0  00000+0 0  9996
2 25933  51.4086  92.2374 0164078  88.5482 228.0412  2.00563200122974
GPS BIIR-4  (PRN 20)    
1 26360U 00025A   16201.34723675  .00000033  00000-0  00000+0 0  9996
2 26360  53.0802 168.7739 0043628  79.6476 186.7291  2.00551886118661
GPS BIIR-5  (PRN 28)    
1 26407U 00040A   16201.34824949 -.00000061  00000-0  00000+0 0  9993
2 26407  56.6974 358.1206 0199643 267.4613 281.7630  2.00569391117331
GPS BIIR-6  (PRN 14)    
1 26605U 00071A   16201.43666900  .00000071  00000-0  00000+0 0  9998
2 26605  55.2137 238.0779 0090876 248.3001 279.8384  2.00521019114937
GPS BIIR-7  (PRN 18)    
1 26690U 01004A   16201.35246890  .00000037  00000-0  00000+0 0  9994
2 26690  53.0067 171.7378 0174901 253.0548 326.7650  2.00559814113333
GPS BIIR-8  (PRN 16)    
1 27663U 03005A   16201.44471759 -.00000061  00000-0  00000+0 0  9990
2 27663  56.7707 357.8369 0086066  21.4758 353.3307  2.00550308 98703
GPS BIIR-9  (PRN 21)    
1 27704U 03010A   16201.34778019 -.00000022  00000-0  00000+0 0  9997
2 27704  53.6769 112.0504 0235928 258.4698  16.2228  2.00573945 97509
GPS BIIR-10 (PRN 22)    
1 28129U 03058A   16201.20980290  .00000037  00000-0  00000+0 0  9997
2 28129  52.8876 171.7747 0078397 252.2807 106.8323  2.00551177 92196
GPS BIIR-11 (PRN 19)    
1 28190U 04009A   16201.14894362 -.00000028  00000-0  00000+0 0  9990
2 28190  55.8104  59.1247 0105539  46.1303 270.2192  2.00569612 90376
GPS BIIR-12 (PRN 23)    
1 28361U 04023A   16201.49767932  .00000072  00000-0  00000+0 0  9994
2 28361  54.1877 233.5268 0112365 214.8882 266.7118  2.00566600 88466
GPS BIIR-13 (PRN 02)    
1 28474U 04045A   16200.57160670 -.00000028  00000-0  00000+0 0  9999
2 28474  54.0643 111.4188 0160201 240.1037 295.7086  2.00572099 85802
GPS BIIRM-1 (PRN 17)    
1 28874U 05038A   16201.39180522 -.00000028  00000-0  00000+0 0  9995
2 28874  55.9756  56.3282 0112169 249.9959 265.7979  2.00558510 79222
GPS BIIRM-2 (PRN 31)    
1 29486U 06042A   16201.37173758 -.00000025  00000-0  00000+0 0  9999
2 29486  55.6126 295.5928 0082404 335.8733  83.0903  2.00550909 71940
GPS BIIRM-3 (PRN 12)    
1 29601U 06052A   16200.73376555 -.00000063  00000-0  00000+0 0  9990
2 29601  56.7417 356.7875 0059444  43.0801 317.3905  2.00561753 70849
GPS BIIRM-4 (PRN 15)    
1 32260U 07047A   16201.04624448  .00000073  00000-0  00000+0 0  9992
2 32260  53.3161 230.1867 0081162  26.3723 334.1162  2.00568287 64235
GPS BIIRM-5 (PRN 29)    
1 32384U 07062A   16201.22235903 -.00000028  00000-0  00000+0 0  9991
2 32384  56.0323  56.8949 0007590 343.2016 282.4592  2.00551498 62961
GPS BIIRM-6 (PRN 07)    
1 32711U 08012A   16201.45658325 -.00000024  00000-0  00000+0 0  9999
2 32711  55.3370 295.0401 0098881 208.8923 150.6108  2.00567954 61169
GPS BIIRM-8 (PRN 05)    
1 35752U 09043A   16201.10316366  .00000041  00000-0  00000+0 0  9998
2 35752  54.2290 173.0224 0045003  23.8954 105.2204  2.00576810 50736
GPS BIIF-1  (PRN 25)    
1 36585U 10022A   16201.29432036 -.00000064  00000-0  00000+0 0  9991
2 36585  56.0645 353.8131 0054561  43.8034 331.4047  2.00558017 44987
GPS BIIF-2  (PRN 01)    
1 37753U 11036A   16201.35176345 -.00000018  00000-0  00000+0 0  9999
2 37753  55.2799 114.0601 0055988  26.5310 118.8165  2.00567407 36661
GPS BIIF-3  (PRN 24)    
1 38833U 12053A   16201.13680723 -.00000022  00000-0  00000+0 0  9990
2 38833  54.3671 292.2982 0043692  20.5060 339.7238  2.00571187 27740
GPS BIIF-4  (PRN 27)    
1 39166U 13023A   16200.99826087 -.00000031  00000-0  00000+0 0  9996
2 39166  55.6859  53.4673 0037050  15.6027 344.5885  2.00567189 23267
GPS BIIF-5  (PRN 30)    
1 39533U 14008A   16200.99366937 -.00000032  00000-0  00000+0 0  9992
2 39533  54.5229 297.5451 0022976 182.9425 177.0902  2.00574211 17637
GPS BIIF-6  (PRN 06)    
1 39741U 14026A   16200.77801191 -.00000023  00000-0  00000+0 0  9995
2 39741  55.2695 113.6004 0005536 278.5233  81.4273  2.00557009 15900
GPS BIIF-7  (PRN 09)    
1 40105U 14045A   16200.86368406  .00000075  00000-0  00000+0 0  9995
2 40105  54.7078 233.2799 0003846 163.5831 196.5115  2.00578943 14355
GPS BIIF-8  (PRN 03)    
1 40294U 14068A   16201.24109048  .00000043  00000-0  00000+0 0  9992
2 40294  54.9708 173.7389 0004019 277.5878  82.3390  2.00564832 12581
GPS BIIF-9  (PRN 26)    
1 40534U 15013A   16200.88636190 -.00000067  00000-0  00000+0 0  9999
2 40534  55.0301 353.2630 0009822 355.9752   4.0215  2.00550062  9642
GPS BIIF-10  (PRN 08)   
1 40730U 15033A   16201.03902088 -.00000032  00000-0  00000+0 0  9991
2 40730  55.2223  53.2875 0018814 296.9591  62.9247  2.00558285  7404
GPS BIIF-11  (PRN 10)   
1 41019U 15062A   16201.09145510  .00000043  00000-0  00000+0 0  9990
2 41019  54.9841 173.5178 0017265 210.0120 149.8620  2.00562474  5226
GPS BIIF-12  (PRN 32)   
1 41328U 16007A   16201.17871147  .00000075  00000-0  00000+0 0  9999
2 41328  54.9702 233.3623 0007816 239.7719 120.2324  2.00568924  3293
